OBJECT B                
1 51825U 22019B   25085.89690697  .00044738  00000+0  12504-2 0  9998
2 51825  97.3916 161.9584 0009748 319.0123  41.0387 15.36508229170416
